STARLINK-1036
1 44741U 19074AE  26092.91668981  .00210948  00000+0  24075-2 0  9991
2 44741  53.0467  70.8296 0005219  53.3325 290.2235 15.60998496  5877
STARLINK-1995
1 47590U 21009AU  26092.83335647  .00159685  00000+0  18376-2 0  9995
2 47590  53.0434 262.0732 0003477 189.8919 222.8874 15.60976057  5918
